NORAD_CAT_ID,OBJECT_NAME,OBJECT_TYPE,EPOCH,MEAN_MOTION,ECCENTRICITY,INCLINATION,RA_OF_ASC_NODE,ARG_OF_PERICENTER,MEAN_ANOMALY,BSTAR,MEAN_MOTION_DOT,MEAN_MOTION_DDOT,TLE_LINE0,TLE_LINE1,TLE_LINE2,SEMIMAJOR_AXIS,PERIOD,APOGEE,PERIGEE,DECAYED
52286.0,STARLINK-3802,PAYLOAD,2022-09-03 22:00:00,15.08839177,0.0001740999999999,53.2145,97.7042,64.4659,44.9517,0.00027054,4.02e-05,0.0,0 STARLINK-3802,1 52286U 22041AB  22246.91667824  .00004020  00000-0  27054-3 0  9998,2 52286  53.2145  97.7042 0001741  64.4659  44.9517 15.08839177 22071,6917.8830000000025,95.438,540.952,538.544,0.0
52286.0,STARLINK-3802,PAYLOAD,2022-09-04 14:00:01,15.088621300000002,0.0001604,53.2145,94.7096,72.1956,60.492,-0.0015549,-0.00024964,0.0,0 STARLINK-3802,1 52286U 22041AB  22247.58335648 -.00024964  00000-0 -15549-2 0  9994,2 52286  53.2145  94.7096 0001604  72.1956  60.4920 15.08862130  1300,6917.813,95.436,540.7869999999998,538.568,0.0
52286.0,STARLINK-3802,PAYLOAD,2022-09-04 20:00:01,15.08844079,0.0001626,53.2143,93.5889,64.6772,346.6638,-0.00075946,-0.00012356,0.0,0 STARLINK-3802,1 52286U 22041AB  22247.83334491 -.00012356  00000-0 -75946-3 0  9997,2 52286  53.2143  93.5889 0001626  64.6772 346.6638 15.08844079  1308,6917.868,95.437,540.8580000000002,538.6080000000002,0.0
52286.0,STARLINK-3802,PAYLOAD,2022-09-05 06:00:00,15.08872275,0.00015,53.2142,91.7176,63.8481,91.9917,-0.0039708,-0.00062986,0.0,0 STARLINK-3802,1 52286U 22041AB  22248.25001157 -.00062986  00000-0 -39708-2 0  9993,2 52286  53.2142  91.7176 0001500  63.8481  91.9917 15.08872275 22273,6917.781999999997,95.436,540.684,538.609,0.0
52286.0,STARLINK-3802,PAYLOAD,2022-09-05 14:00:01,15.08835095,0.0001462,53.2145,90.2205,69.2779,98.1621,0.0010838,0.0001699999999999,0.0,0 STARLINK-3802,1 52286U 22041AB  22248.58334491  .00017000  00000-0  10838-2 0  9997,2 52286  53.2145  90.2205 0001462  69.2779  98.1621 15.08835095  1301,6917.895,95.438,540.7719999999998,538.749,0.0
52286.0,STARLINK-3802,PAYLOAD,2022-09-05 22:00:00,15.08833229,0.0001531999999999,53.2144,88.7259,59.0796,119.9563,-0.001258,-0.0002025,0.0,0 STARLINK-3802,1 52286U 22041AB  22248.91667824 -.00020250  00000-0 -12580-2 0  9992,2 52286  53.2144  88.7259 0001532  59.0796 119.9563 15.08833229 22379,6917.901,95.438,540.826,538.706,0.0
52286.0,STARLINK-3802,PAYLOAD,2022-09-06 12:00:00,15.08810666,0.0001391,53.2144,86.105,66.0301,43.2667,0.0025691999999999,0.00040805,0.0,0 STARLINK-3802,1 52286U 22041AB  22249.50001157  .00040805  00000-0  25692-2 0  9993,2 52286  53.2144  86.1050 0001391  66.0301  43.2667 15.08810666 22467,6917.97,95.439,540.797,538.873,0.0
52286.0,STARLINK-3802,PAYLOAD,2022-09-06 14:00:01,15.08831231,0.0001422,53.2146,85.7313,66.3964,135.7872,0.00064827,0.00010042,0.0,0 STARLINK-3802,1 52286U 22041AB  22249.58334491  .00010042  00000-0  64827-3 0  9995,2 52286  53.2146  85.7313 0001422  66.3964 135.7872 15.08831231  1305,6917.906999999997,95.438,540.756,538.788,0.0
52286.0,STARLINK-3802,PAYLOAD,2022-09-06 22:00:00,15.08816994,0.0001587,53.2146,84.2366,57.2186,156.5534,0.0018172,0.00028733,0.0,0 STARLINK-3802,1 52286U 22041AB  22249.91667824  .00028733  00000-0  18172-2 0  9998,2 52286  53.2146  84.2366 0001587  57.2186 156.5534 15.08816994 22526,6917.951,95.439,540.914,538.7180000000002,0.0
52286.0,STARLINK-3802,PAYLOAD,2022-09-07 14:00:01,15.08826387,0.000159,53.2148,81.242,67.2799,169.6508,0.00028284,4.215e-05,0.0,0 STARLINK-3802,1 52286U 22041AB  22250.58334491  .00004215  00000-0  28284-3 0  9999,2 52286  53.2148  81.2420 0001590  67.2799 169.6508 15.08826387 22625,6917.922,95.438,540.887,538.687,0.0
52286.0,STARLINK-3802,PAYLOAD,2022-09-07 22:00:00,15.0880518,0.0001733,53.2148,79.7471,58.7036,189.8073,0.0023899999999999,0.00037918,0.0,0 STARLINK-3802,1 52286U 22041AB  22250.91667824  .00037918  00000-0  23900-2 0  9990,2 52286  53.2148  79.7471 0001733  58.7036 189.8073 15.08805180  1302,6917.986999999999,95.44,541.0509999999998,538.653,0.0
52286.0,STARLINK-3802,PAYLOAD,2022-09-08 14:00:01,15.08848377,0.0001614,53.2151,76.7524,67.0386,204.628,-0.00011718,-2.153e-05,0.0,0 STARLINK-3802,1 52286U 22041AB  22251.58334491 -.00002153  00000-0 -11718-3 0  9995,2 52286  53.2151  76.7524 0001614  67.0386 204.6280 15.08848377  1302,6917.855,95.437,540.836,538.6030000000002,0.0
52286.0,STARLINK-3802,PAYLOAD,2022-09-08 22:00:00,15.08829997,0.0001719,53.215,75.2574,58.5559,224.72,0.0021338,0.00033826,0.0,0 STARLINK-3802,1 52286U 22041AB  22251.91667824  .00033826  00000-0  21338-2 0  9998,2 52286  53.2150  75.2574 0001719  58.5559 224.7200 15.08829997  1305,6917.911,95.438,540.965,538.587,0.0
52286.0,STARLINK-3802,PAYLOAD,2022-09-09 14:00:01,15.08846066,0.0001489,53.2152,72.2628,65.3173,241.1472,-0.00045209,-7.477e-05,0.0,0 STARLINK-3802,1 52286U 22041AB  22252.58334491 -.00007477  00000-0 -45209-3 0  9992,2 52286  53.2152  72.2628 0001489  65.3173 241.1472 15.08846066  1306,6917.861999999999,95.437,540.757,538.697,0.0
52286.0,STARLINK-3802,PAYLOAD,2022-09-09 22:00:00,15.088209099999998,0.0001593,53.215,70.7678,56.7454,261.3228,0.0026796999999999,0.00042595,0.0,0 STARLINK-3802,1 52286U 22041AB  22252.91667824  .00042595  00000-0  26797-2 0  9996,2 52286  53.2150  70.7678 0001593  56.7454 261.3228 15.08820910  1307,6917.939,95.439,540.906,538.702,0.0
52286.0,STARLINK-3802,PAYLOAD,2022-09-10 14:00:01,15.08842469,0.0001348,53.2152,67.7733,62.8236,278.426,-0.00079904,-0.00012983,0.0,0 STARLINK-3802,1 52286U 22041AB  22253.58334491 -.00012983  00000-0 -79904-3 0  9990,2 52286  53.2152  67.7733 0001348  62.8236 278.4260 15.08842469  1309,6917.873000000001,95.437,540.67,538.805,0.0
52286.0,STARLINK-3802,PAYLOAD,2022-09-10 22:00:00,15.08810385,0.0001474,53.2149,66.2782,54.8088,298.0312,0.0029160999999999,0.0004638999999999,0.0,0 STARLINK-3802,1 52286U 22041AB  22253.91667824  .00046390  00000-0  29161-2 0  9992,2 52286  53.2149  66.2782 0001474  54.8088 298.0312 15.08810385 23121,6917.971,95.439,540.856,538.816,0.0
52286.0,STARLINK-3802,PAYLOAD,2022-09-11 14:00:01,15.08867462,0.0001385,53.215,63.2839,63.2494,312.7667,-0.0015676,-0.00025168,0.0,0 STARLINK-3802,1 52286U 22041AB  22254.58334491 -.00025168  00000-0 -15676-2 0  9995,2 52286  53.2150  63.2839 0001385  63.2494 312.7667 15.08867462  1300,6917.795999999999,95.436,540.62,538.703,0.0
52286.0,STARLINK-3802,PAYLOAD,2022-09-11 22:00:00,15.08828861,0.0001541,53.2147,61.7887,56.3358,331.3040000000001,0.0010097,0.00015813,0.0,0 STARLINK-3802,1 52286U 22041AB  22254.91667824  .00015813  00000-0  10097-2 0  9997,2 52286  53.2147  61.7887 0001541  56.3358 331.3040 15.08828861  1300,6917.9140000000025,95.438,540.845,538.7130000000002,0.0
52286.0,STARLINK-3802,PAYLOAD,2022-09-12 14:00:01,15.08838962,0.0001628,53.2174,58.7993,55.8969,354.8946,-0.00022291,-3.834e-05,0.0,0 STARLINK-3802,1 52286U 22041AB  22255.58334491 -.00003834  00000-0 -22291-3 0  9994,2 52286  53.2174  58.7993 0001628  55.8969 354.8946 15.08838962  1300,6917.884,95.438,540.875,538.622,0.0
52286.0,STARLINK-3802,PAYLOAD,2022-09-12 22:00:00,15.08805878,0.0001709,53.2148,57.2994,58.2226,4.1949,0.0033115,0.0005276,0.0,0 STARLINK-3802,1 52286U 22041AB  22255.91667824  .00052760  00000-0  33115-2 0  9996,2 52286  53.2148  57.2994 0001709  58.2226   4.1949 15.08805878  1307,6917.985,95.44,541.0319999999998,538.6669999999998,0.0
52286.0,STARLINK-3802,PAYLOAD,2022-09-13 14:00:01,15.08876909,0.000166,53.2151,54.3054,62.909,22.6739,-0.0040355,-0.00064008,0.0,0 STARLINK-3802,1 52286U 22041AB  22256.58334491 -.00064008  00000-0 -40355-2 0  9995,2 52286  53.2151  54.3054 0001660  62.9090  22.6739 15.08876909  1308,6917.768,95.435,540.781,538.484,0.0
52286.0,STARLINK-3802,PAYLOAD,2022-09-13 16:00:00,15.08865876,0.0001686999999999,53.2156,53.9328,60.6042,117.8859,-0.0037586,-0.00059654,0.0,0 STARLINK-3802,1 52286U 22041AB  22256.66667824 -.00059654  00000-0 -37586-2 0  9996,2 52286  53.2156  53.9328 0001687  60.6042 117.8859 15.08865876 23544,6917.801,95.436,540.8330000000002,538.499,0.0
52286.0,STARLINK-3802,PAYLOAD,2022-09-13 22:00:00,15.08809003,0.0001659,53.2152,52.8101,54.1656,43.0312,0.0031205,0.00049683,0.0,0 STARLINK-3802,1 52286U 22041AB  22256.91667824  .00049683  00000-0  31205-2 0  9995,2 52286  53.2152  52.8101 0001659  54.1656  43.0312 15.08809003  1309,6917.975,95.44,540.988,538.692,0.0
52286.0,STARLINK-3802,PAYLOAD,2022-09-14 06:00:00,15.08817006,0.0001468,53.2155,51.3119,58.9782,49.8044,0.00038168,5.788e-05,0.0,0 STARLINK-3802,1 52286U 22041AB  22257.25001157  .00005788  00000-0  38168-3 0  9998,2 52286  53.2155  51.3119 0001468  58.9782  49.8044 15.08817006 23633,6917.951,95.439,540.831,538.8,0.0
52286.0,STARLINK-3802,PAYLOAD,2022-09-14 14:00:01,15.08835838,0.0001569,53.2157,49.8163,58.0335,62.3142,-0.001251,-0.0002014,0.0,0 STARLINK-3802,1 52286U 22041AB  22257.58334491 -.00020140  00000-0 -12510-2 0  9997,2 52286  53.2157  49.8163 0001569  58.0335  62.3142 15.08835838  1305,6917.893,95.438,540.844,538.673,0.0
52286.0,STARLINK-3802,PAYLOAD,2022-09-14 22:00:00,15.08814106,0.0001659,53.2157,48.3209,50.5542,81.377,0.0028239999999999,0.00044911,0.0,0 STARLINK-3802,1 52286U 22041AB  22257.91667824  .00044911  00000-0  28240-2 0  9990,2 52286  53.2157  48.3209 0001659  50.5542  81.3770 15.08814106  1300,6917.96,95.439,540.972,538.677,0.0
52286.0,STARLINK-3802,PAYLOAD,2022-09-15 14:00:01,15.08875838,0.0001575999999999,53.2164,45.3273,54.7045,100.4138,-0.0039006,-0.00061894,0.0,0 STARLINK-3802,1 52286U 22041AB  22258.58334491 -.00061894  00000-0 -39006-2 0  9998,2 52286  53.2164  45.3273 0001576  54.7045 100.4138 15.08875838  1308,6917.771,95.435,540.726,538.5459999999998,0.0
52286.0,STARLINK-3802,PAYLOAD,2022-09-15 16:00:00,15.08854897,0.0001623,53.2162,44.9537,51.7007,196.3279,-0.0021132,-0.00033776,0.0,0 STARLINK-3802,1 52286U 22041AB  22258.66667824 -.00033776  00000-0 -21132-2 0  9995,2 52286  53.2162  44.9537 0001623  51.7007 196.3279 15.08854897  1304,6917.835,95.437,540.823,538.577,0.0
